LEMUR-2-JEROEN          
1 40934U 15052E   17342.67677027  .00000914  00000-0  37764-4 0  9997
2 40934   6.0040  66.9186 0011297 198.6971 161.3589 14.77096240118787
